satname,norad_id,inclination_deg,eccentricity,mean_motion_rev_per_day,perigee_km,apogee_km,l1,l2
STARLINK-1008,44714,53.0554,0.0001397,15.06399747,546.2448620450787,548.1798046488166,1 44714U 19074B   26011.51390828  .00002384  00000+0  17891-3 0  9992,2 44714  53.0554  83.2955 0001397  91.9052 268.2097 15.06399747340138
STARLINK-1012,44718,53.0564,0.0001291,15.06396166,546.32924460516,548.1173726368461,1 44718U 19074F   26011.49180277  .00001529  00000+0  12153-3 0  9994,2 44718  53.0564  83.3896 0001291  98.0175 262.0961 15.06396166340128
STARLINK-1017,44723,53.0511,0.0002376,15.1979713,504.81742628700067,508.0889835523785,1 44723U 19074L   26011.47026699  .00034032  00000+0  15771-2 0  9998,2 44723  53.0511  74.5192 0002376 152.6637 207.4483 15.19797130340258
STARLINK-1019,44724,53.0501,0.000774,15.63440241,372.49929278574837,382.95737232054216,1 44724U 19074M   26011.60577564  .00110999  00000+0  11683-2 0  9991,2 44724  53.0501  60.0388 0007740 351.1153   8.9722 15.63440241340464
STARLINK-1020,44725,53.0545,0.0001478,15.0640556,546.1709533932062,548.2180813897476,1 44725U 19074N   26011.62633401  .00006056  00000+0  42502-3 0  9990,2 44725  53.0545 102.7878 0001478  86.6929 273.4229 15.06405560339869
STARLINK-1031,44736,53.0448,0.0003948,15.67883158,362.2973737361717,367.62172277067293,1 44736U 19074Z   26011.66667824  .00124059  00000+0  10921-2 0  9995,2 44736  53.0448  45.7298 0003948  27.2227 330.3140 15.67883158  5899
STARLINK-1036,44741,53.0567,0.0001298,15.28985199,477.95461134350353,479.7346837792102,1 44741U 19074AE  26011.66667824  .00966700  00000+0  31271-1 0  9998,2 44741  53.0567 101.5497 0001298  76.5985 165.6690 15.28985199  5695
STARLINK-1039,44744,53.0507,0.0002658,15.17150216,512.6263474088519,516.2904511231009,1 44744U 19074AH  26011.57667378  .00043141  00000+0  21504-2 0  9999,2 44744  53.0507 116.6255 0002658  46.9024 313.2192 15.17150216339675
STARLINK-1042,44747,53.0469,0.0003144,15.4672712,424.1686771560535,428.44731216869695,1 44747U 19074AL  26011.26698011  .00023772  00000+0  47472-3 0  9997,2 44747  53.0469   9.6509 0003144  27.6163 332.5010 15.46727120341176
STARLINK-1043,44748,53.0541,0.0001435,15.4762305,422.7055858151589,424.657707766788,1 44748U 19074AM  26011.57445347  .00021253  00000+0  41257-3 0  9991,2 44748  53.0541 109.0524 0001435 285.6211  74.4637 15.47623050339780
STARLINK-1046,44751,53.0535,0.0001271,15.3728273,453.28016757283785,455.0169345599197,1 44751U 19074AQ  26011.66667824  .00043401  00000+0  11747-2 0  9990,2 44751  53.0535 120.6847 0001271  64.0650 333.1204 15.37282730  5812
STARLINK-1047,44752,53.0707,0.0003994,15.31116728,469.7431145121391,475.2153867731522,1 44752U 19074AR  26011.27789171  .00010348  00000+0  35097-3 0  9997,2 44752  53.0707  53.9137 0003994  52.3536 307.7826 15.31116728340547
STARLINK-1048,44753,53.0604,0.0001333,15.33255524,465.19464207855253,467.0193175235672,1 44753U 19074AS  26011.66667824  .01143761  00000+0  32406-1 0  9997,2 44753  53.0604  81.1686 0001333  81.4552 286.7085 15.33255524  5745
STARLINK-1053,44758,53.0378,0.0003392,15.7265999,349.0155823907053,353.58083123500637,1 44758U 19074AX  26011.39342028  .00112635  00000+0  81445-3 0  9992,2 44758  53.0378  11.3418 0003392  49.9632 310.1682 15.72659990341141
STARLINK-1060,44765,53.0463,0.000373,15.88367573,304.36572370977046,309.352730895338,1 44765U 19074BE  26011.66667824  .00206869  00000+0  71726-3 0  9998,2 44765  53.0463  51.9853 0003730 338.5147 269.3516 15.88367573  5903
STARLINK-1063,44768,53.054,0.0001428,15.06432123,546.1241816040065,548.1020330346582,1 44768U 19074BH  26011.56548288  .00006179  00000+0  43296-3 0  9995,2 44768  53.0540 123.0599 0001428  92.1386 267.9767 15.06432123339591
STARLINK-1067,44771,53.0539,0.0002407,15.44117113,432.3338218527979,435.613171845981,1 44771U 19074BL  26011.66667824  .00090444  00000+0  19318-2 0  9993,2 44771  53.0539 117.9840 0002407  13.9936  84.4464 15.44117113  5748
STARLINK-1068,44772,53.0534,0.0006588,15.44304344,428.93543123396466,437.91034254092847,1 44772U 19074BM  26011.44631650  .00099738  00000+0  21122-2 0  9999,2 44772  53.0534  96.9220 0006588   0.3113 359.7896 15.44304344339935
STARLINK-1112,44925,53.0431,0.0004531,15.75074397,341.3734940938584,347.46547478005596,1 44925U 20001M   26011.66667824  .00193591  00000+0  12466-2 0  9990,2 44925  53.0431 171.1479 0004531 152.8839 324.2089 15.75074397  5866
STARLINK-1114,44927,53.0555,0.0001164,15.3572969,457.9581590450189,459.54978726356876,1 44927U 20001P   26011.66667824  .00125477  00000+0  35111-2 0  9992,2 44927  53.0555 240.9678 0001164 108.0805 104.0241 15.35729690  5690
STARLINK-1123,44930,53.0552,0.0001549,15.0639885,546.1423454873066,548.2878195624726,1 44930U 20001S   26011.33330404 -.00001742  00000+0 -98109-4 0  9999,2 44930  53.0552 244.0991 0001549  89.1854 270.9312 15.06398850331203
STARLINK-1144,44933,53.034,0.000475,15.8733348,306.58552294000765,312.9390272513483,1 44933U 20001V   26011.66667824  .00298223  00000+0  10756-2 0  9997,2 44933  53.0340 143.2791 0004750 319.2584  19.4938 15.87333480  6018
STARLINK-1094,44941,53.055,0.0001513,15.06401451,546.1593062718594,548.2549153997979,1 44941U 20001AD  26011.54524699  .00000609  00000+0  59771-4 0  9996,2 44941  53.0550 223.1521 0001513  88.6306 271.4857 15.06401451331513
STARLINK-1122,44949,53.0538,0.0001216,15.06385523,546.4138004334809,548.0980559936224,1 44949U 20001AM  26011.56737440  .00003704  00000+0  26752-3 0  9997,2 44949  53.0538 223.0483 0001216  93.0224 267.0904 15.06385523331517
STARLINK-1080,44961,53.0559,0.0001119,15.38982145,448.35397209341227,449.88191174941585,1 44961U 20001AZ  26011.23147689  .00095409  00000+0  24152-2 0  9999,2 44961  53.0559 201.0275 0001119 139.0776 221.0312 15.38982145331807
STARLINK-1090,44968,53.0559,0.0001381,15.06398199,546.2606863512483,548.1734691475231,1 44968U 20001BG  26011.23746324  .00000519  00000+0  53755-4 0  9998,2 44968  53.0559 204.5318 0001381  89.6976 270.4172 15.06398199331754
STARLINK-1132,45044,53.1218,0.0001541,15.21704975,499.63758114108987,501.7576379677548,1 45044U 20006A   26011.66667824  .01408706  00000+0  56390-1 0  9999,2 45044  53.1218 162.1695 0001541 108.5111 163.9427 15.21704975  5746
STARLINK-1131,45047,53.0561,0.0001658,15.06395977,546.0756630460892,548.37211271651,1 45047U 20006D   26011.63745852 -.00000276  00000+0  37917-6 0  9996,2 45047  53.0561 183.2789 0001658  86.9784 273.1395 15.06395977327859
STARLINK-1134,45048,53.0351,0.0003097,15.3620223,455.2349194771987,459.4688212835126,1 45048U 20006E   26011.64765032  .00073907  00000+0  20552-2 0  9993,2 45048  53.0351 148.0446 0003097  58.0431 302.0871 15.36202230328353
STARLINK-1156,45054,53.0555,0.0001313,15.06387641,546.3401335130848,548.158739991376,1 45054U 20006L   26011.20983714 -.00001091  00000+0 -54413-4 0  9993,2 45054  53.0555 184.6566 0001313  89.9027 270.2112 15.06387641327796
STARLINK-1159,45057,53.049,0.0003375,15.63474019,375.35095597949294,379.911099398184,1 45057U 20006P   26011.66667824  .00108718  00000+0  11444-2 0  9994,2 45057  53.0490 157.7905 0003375 197.8918  49.2900 15.63474019  5682
STARLINK-1166,45060,53.0536,0.0001538,15.21570878,500.0437340484441,502.15978789131896,1 45060U 20006S   26011.66667824  .00008974  00000+0  40687-3 0  9993,2 45060  53.0536 182.2018 0001538  94.9858 291.7546 15.21570878  5745
STARLINK-1169,45061,53.0567,0.0001973,15.06391189,545.872185917402,548.6049391143697,1 45061U 20006T   26011.64108966 -.00000378  00000+0 -64600-5 0  9994,2 45061  53.0567 182.7209 0001973  82.8756 277.2458 15.06391189327863
STARLINK-1171,45062,53.0496,0.0010587,15.4562827,422.32537058437174,436.7399303022203,1 45062U 20006U   26011.66667824  .00075955  00000+0  15425-2 0  9999,2 45062  53.0496 163.8250 0010587 165.1846 301.6087 15.45628270  5799
STARLINK-1133,45064,53.104,7.09e-05,15.18219367,510.7336566820786,511.7105678041953,1 45064U 20006W   26011.66667824  .01337746  00000+0  59486-1 0  9995,2 45064  53.1040 162.3313 0000709 100.1613 201.7170 15.18219367  5816
STARLINK-1167,45071,53.116,0.0001798,15.20184122,504.0471131976801,506.5223916598525,1 45071U 20006AD  26011.66667824  .01327609  00000+0  55830-1 0  9999,2 45071  53.1160 162.2096 0001798  97.2148 131.5165 15.20184122  5640
STARLINK-1168,45072,53.1141,0.000214,15.19728762,505.1863348072775,508.13302778687284,1 45072U 20006AE  26011.66667824  .01402626  00000+0  59489-1 0  9997,2 45072  53.1141 162.2678 0002140  94.1254  82.0289 15.19728762  5809
STARLINK-1172,45074,53.1014,0.0001371,15.17662694,511.96190795535495,513.8514321296798,1 45074U 20006AG  26011.66667824  .01455469  00000+0  65279-1 0  9996,2 45074  53.1014 162.3733 0001371  68.4610 350.2171 15.17662694  5807
STARLINK-1153,45080,53.1213,0.000138,15.21420423,500.6058864687793,502.50468153916427,1 45080U 20006AN  26011.66667824  .01379265  00000+0  55773-1 0  9990,2 45080  53.1213 162.1823 0001380 103.7002 181.1420 15.21420423  5749
STARLINK-1151,45081,53.053,0.0003559,15.4733386,422.1080385002115,426.9501762354357,1 45081U 20006AP  26011.53816812  .00119720  00000+0  22790-2 0  9991,2 45081  53.0530 155.8155 0003559 294.3431  65.7204 15.47333860328236
STARLINK-1185,45087,53.0546,9.61e-05,15.06385284,546.5911303951625,547.922191056754,1 45087U 20006AV  26011.61897552  .00005866  00000+0  41251-3 0  9995,2 45087  53.0546 142.8212 0000961 103.0081 257.1016 15.06385284328421
STARLINK-1183,45088,53.0547,0.0001143,15.06403313,546.4098379094576,547.9929702686322,1 45088U 20006AW  26011.64107193  .00000509  00000+0  53023-4 0  9994,2 45088  53.0547 142.7228 0001143  89.7535 270.3585 15.06403313328428
STARLINK-1152,45096,53.0414,0.0002396,15.31860213,468.6215737262082,471.9033267427603,1 45096U 20006BE  26011.55815435  .00013429  00000+0  44148-3 0  9990,2 45096  53.0414 114.4994 0002396  49.5884 310.5324 15.31860213328813
